{
  "type": "FeatureCollection",
  "features": [
    {
      "type": "Feature",
      "properties": {
        "norad_id": 34540,
        "name": "IRIDIUM 33 DEB",
        "group": "iridium-33-debris",
        "lat": -69.69923226165754,
        "lon": 141.08419865819138,
        "alt_km": 647.500754041117,
        "timestamp": "2025-12-05T05:43:15.494836+00:00",
        "meta_object_name": "IRIDIUM 33 DEB",
        "meta_object_id": "1997-051JH",
        "meta_epoch": "2025-12-04T09:44:19.454208",
        "meta_mean_motion": 14.75040189,
        "meta_eccentricity": 0.0014993,
        "meta_inclination": 86.3094,
        "meta_ra_of_asc_node": 311.4162,
        "meta_arg_of_pericenter": 189.6254,
        "meta_mean_anomaly": 321.8404,
        "meta_ephemeris_type": 0,
        "meta_classification_type": "U",
        "meta_norad_cat_id": 34540,
        "meta_element_set_no": 999,
        "meta_rev_at_epoch": 88898,
        "meta_bstar": 0.004011,
        "meta_mean_motion_dot": 0.00027148,
        "meta_mean_motion_ddot": 0,
        "tle_line1": "1 34540U 97051JH  25338.40578072  .00027148  00000+0  40110-2 0  9991",
        "tle_line2": "2 34540  86.3094 311.4162 0014993 189.6254 321.8404 14.75040189888989"
      },
      "geometry": {
        "type": "Point",
        "coordinates": [
          141.08419865819138,
          -69.69923226165754
        ]
      }
    },
    {
      "type": "Feature",
      "properties": {
        "norad_id": 34648,
        "name": "IRIDIUM 33 DEB",
        "group": "iridium-33-debris",
        "lat": -41.34032085201445,
        "lon": -78.20981300235559,
        "alt_km": 727.6782753446769,
        "timestamp": "2025-12-05T05:43:15.494845+00:00",
        "meta_object_name": "IRIDIUM 33 DEB",
        "meta_object_id": "1997-051JZ",
        "meta_epoch": "2025-12-01T03:11:38.418720",
        "meta_mean_motion": 14.1087899,
        "meta_eccentricity": 0.01868529,
        "meta_inclination": 86.3903,
        "meta_ra_of_asc_node": 286.6295,
        "meta_arg_of_pericenter": 334.6513,
        "meta_mean_anomaly": 24.5588,
        "meta_ephemeris_type": 0,
        "meta_classification_type": "U",
        "meta_norad_cat_id": 34648,
        "meta_element_set_no": 999,
        "meta_rev_at_epoch": 84797,
        "meta_bstar": 0.0079356223,
        "meta_mean_motion_dot": 0.00016788,
        "meta_mean_motion_ddot": 0,
        "tle_line1": "1 34648U 97051JZ  25335.13308355  .00016788  00000+0  79356-2 0  9994",
        "tle_line2": "2 34648  86.3903 286.6295 0186852 334.6513  24.5588 14.10878990847973"
      },
      "geometry": {
        "type": "Point",
        "coordinates": [
          -78.20981300235559,
          -41.34032085201445
        ]
      }
    },
    {
      "type": "Feature",
      "properties": {
        "norad_id": 34651,
        "name": "IRIDIUM 33 DEB",
        "group": "iridium-33-debris",
        "lat": -10.244166446241104,
        "lon": 143.09316287475187,
        "alt_km": 863.7458399675706,
        "timestamp": "2025-12-05T05:43:15.494856+00:00",
        "meta_object_name": "IRIDIUM 33 DEB",
        "meta_object_id": "1997-051KC",
        "meta_epoch": "2025-12-04T11:14:22.766784",
        "meta_mean_motion": 14.25597734,
        "meta_eccentricity": 0.0141881,
        "meta_inclination": 86.2823,
        "meta_ra_of_asc_node": 144.094,
        "meta_arg_of_pericenter": 230.2415,
        "meta_mean_anomaly": 128.6209,
        "meta_ephemeris_type": 0,
        "meta_classification_type": "U",
        "meta_norad_cat_id": 34651,
        "meta_element_set_no": 999,
        "meta_rev_at_epoch": 85778,
        "meta_bstar": 0.0077267,
        "meta_mean_motion_dot": 0.00020383,
        "meta_mean_motion_ddot": 0,
        "tle_line1": "1 34651U 97051KC  25338.46831906  .00020383  00000+0  77267-2 0  9995",
        "tle_line2": "2 34651  86.2823 144.0940 0141881 230.2415 128.6209 14.25597734857782"
      },
      "geometry": {
        "type": "Point",
        "coordinates": [
          143.09316287475187,
          -10.244166446241104
        ]
      }
    },
    {
      "type": "Feature",
      "properties": {
        "norad_id": 34652,
        "name": "IRIDIUM 33 DEB",
        "group": "iridium-33-debris",
        "lat": 38.70346563894523,
        "lon": 160.39587623306264,
        "alt_km": 703.1986294571543,
        "timestamp": "2025-12-05T05:43:15.494866+00:00",
        "meta_object_name": "IRIDIUM 33 DEB",
        "meta_object_id": "1997-051KD",
        "meta_epoch": "2025-12-02T12:03:44.445600",
        "meta_mean_motion": 14.61898676,
        "meta_eccentricity": 0.00270627,
        "meta_inclination": 86.3312,
        "meta_ra_of_asc_node": 344.5601,
        "meta_arg_of_pericenter": 334.9096,
        "meta_mean_anomaly": 177.4047,
        "meta_ephemeris_type": 0,
        "meta_classification_type": "U",
        "meta_norad_cat_id": 34652,
        "meta_element_set_no": 999,
        "meta_rev_at_epoch": 88334,
        "meta_bstar": 0.0012168376,
        "meta_mean_motion_dot": 6.139e-05,
        "meta_mean_motion_ddot": 0,
        "tle_line1": "1 34652U 97051KD  25336.50259775  .00006139  00000+0  12168-2 0  9999",
        "tle_line2": "2 34652  86.3312 344.5601 0027062 334.9096 177.4047 14.61898676883341"
      },
      "geometry": {
        "type": "Point",
        "coordinates": [
          160.39587623306264,
          38.70346563894523
        ]
      }
    },
    {
      "type": "Feature",
      "properties": {
        "norad_id": 34690,
        "name": "IRIDIUM 33 DEB",
        "group": "iridium-33-debris",
        "lat": -11.005629266704803,
        "lon": -139.04268703355973,
        "alt_km": 719.9873819793938,
        "timestamp": "2025-12-05T05:43:15.494876+00:00",
        "meta_object_name": "IRIDIUM 33 DEB",
        "meta_object_id": "1997-051KM",
        "meta_epoch": "2025-12-03T11:52:36.056064",
        "meta_mean_motion": 14.55037039,
        "meta_eccentricity": 0.0011766,
        "meta_inclination": 86.3793,
        "meta_ra_of_asc_node": 41.009,
        "meta_arg_of_pericenter": 56.8306,
        "meta_mean_anomaly": 7.0908,
        "meta_ephemeris_type": 0,
        "meta_classification_type": "U",
        "meta_norad_cat_id": 34690,
        "meta_element_set_no": 999,
        "meta_rev_at_epoch": 87960,
        "meta_bstar": 0.00070543794,
        "meta_mean_motion_dot": 3.062e-05,
        "meta_mean_motion_ddot": 0,
        "tle_line1": "1 34690U 97051KM  25337.49486176  .00003062  00000+0  70544-3 0  9992",
        "tle_line2": "2 34690  86.3793  41.0090 0011766  56.8306   7.0908 14.55037039879604"
      },
      "geometry": {
        "type": "Point",
        "coordinates": [
          -139.04268703355973,
          -11.005629266704803
        ]
      }
    },
    {
      "type": "Feature",
      "properties": {
        "norad_id": 34693,
        "name": "IRIDIUM 33 DEB",
        "group": "iridium-33-debris",
        "lat": 69.08642108948987,
        "lon": 117.80938295095176,
        "alt_km": 475.71821235404695,
        "timestamp": "2025-12-05T05:43:15.494886+00:00",
        "meta_object_name": "IRIDIUM 33 DEB",
        "meta_object_id": "1997-051KQ",
        "meta_epoch": "2025-12-04T09:25:40.956096",
        "meta_mean_motion": 15.2504768,
        "meta_eccentricity": 0.0015648,
        "meta_inclination": 86.3057,
        "meta_ra_of_asc_node": 307.9621,
        "meta_arg_of_pericenter": 65.2791,
        "meta_mean_anomaly": 85.5707,
        "meta_ephemeris_type": 0,
        "meta_classification_type": "U",
        "meta_norad_cat_id": 34693,
        "meta_element_set_no": 999,
        "meta_rev_at_epoch": 88787,
        "meta_bstar": 0.0093371,
        "meta_mean_motion_dot": 0.00241217,
        "meta_mean_motion_ddot": 0,
        "tle_line1": "1 34693U 97051KQ  25338.39283514  .00241217  00000+0  93371-2 0  9994",
        "tle_line2": "2 34693  86.3057 307.9621 0015648  65.2791  85.5707 15.25047680887876"
      },
      "geometry": {
        "type": "Point",
        "coordinates": [
          117.80938295095176,
          69.08642108948987
        ]
      }
    },
    {
      "type": "Feature",
      "properties": {
        "norad_id": 34696,
        "name": "IRIDIUM 33 DEB",
        "group": "iridium-33-debris",
        "lat": 66.14056517771469,
        "lon": 39.68623369783595,
        "alt_km": 703.6553807032997,
        "timestamp": "2025-12-05T05:43:15.494896+00:00",
        "meta_object_name": "IRIDIUM 33 DEB",
        "meta_object_id": "1997-051KT",
        "meta_epoch": "2025-12-03T04:28:11.100576",
        "meta_mean_motion": 14.64210204,
        "meta_eccentricity": 0.00749062,
        "meta_inclination": 86.1858,
        "meta_ra_of_asc_node": 31.9639,
        "meta_arg_of_pericenter": 199.8052,
        "meta_mean_anomaly": 216.5408,
        "meta_ephemeris_type": 0,
        "meta_classification_type": "U",
        "meta_norad_cat_id": 34696,
        "meta_element_set_no": 999,
        "meta_rev_at_epoch": 86533,
        "meta_bstar": 0.0085473115,
        "meta_mean_motion_dot": 0.00047152,
        "meta_mean_motion_ddot": 0,
        "tle_line1": "1 34696U 97051KT  25337.18623959  .00047152  00000+0  85473-2 0  9990",
        "tle_line2": "2 34696  86.1858  31.9639 0074906 199.8052 216.5408 14.64210204865332"
      },
      "geometry": {
        "type": "Point",
        "coordinates": [
          39.68623369783595,
          66.14056517771469
        ]
      }
    }
  ]
}